OBJECT_NAME,OBJECT_ID,EPOCH,MEAN_MOTION,ECCENTRICITY,INCLINATION,RA_OF_ASC_NODE,ARG_OF_PERICENTER,MEAN_ANOMALY,EPHEMERIS_TYPE,CLASSIFICATION_TYPE,NORAD_CAT_ID,ELEMENT_SET_NO,REV_AT_EPOCH,BSTAR,MEAN_MOTION_DOT,MEAN_MOTION_DDOT
LEMUR-2-CELIJO-SB-PK,2025-276DW,2026-07-05T04:19:37.436160,15.00210002,.00075541,97.5202,256.3655,88.8480,271.3609,0,U,66781,999,2532,.95586472E-3,.11915E-3,0
LEMUR-2-FINNIAN,2025-276DX,2026-07-04T21:15:55.206432,15.00515956,.00082709,97.5333,256.3227,36.6551,323.5237,0,U,66782,999,2265,.34004544E-3,.4231E-4,0
LEMUR-2-STARLIGHT,2025-276DY,2026-07-04T22:11:32.086752,14.99261525,.00146371,97.5223,255.9568,76.9781,283.3076,0,U,66783,999,3285,.95495904E-3,.1163E-3,0
LEMUR-2-TARTIFLETTE,2025-276DZ,2026-07-04T22:09:06.953760,14.99259046,.00136678,97.5226,255.9634,84.7358,275.5425,0,U,66784,999,3285,.81866479E-3,.9956E-4,0
LEMUR-2-VUKASIN,2025-276EA,2026-07-05T04:02:30.923808,15.00457120,.00046134,97.5256,256.5396,82.2970,277.8778,0,U,66785,999,3284,.21869302E-3,.2695E-4,0
LEMUR-2-HOTSPUR-TOM,2025-276EB,2026-07-04T23:36:14.241888,14.99165308,.00140311,97.5218,255.9992,75.8972,284.3810,0,U,66786,999,3279,.93388449E-3,.11341E-3,0
LEMUR-2-MYRA,2025-276EC,2026-07-05T03:12:45.235296,15.00508428,.00183848,97.5208,256.4281,84.6950,275.6371,0,U,66787,999,3290,.96903448E-3,.1221E-3,0
LEMUR-2 FIKRETDENGIZ,2026-004A,2026-07-04T22:47:43.015488,14.88465087,.0010589,97.8023,184.2361,84.1955,276.0469,0,U,67363,999,2592,.73092242E-3,.6741E-4,0
TWILIGHT-1 OBJECT B,2026-004B,2026-07-04T17:06:46.186848,14.87770543,.00101943,97.8065,184.0096,75.3271,284.9075,0,U,67364,999,2589,.31184346E-3,.2794E-4,0
LEMUR-2-MARIO-SOUSA,2026-004C,2026-07-04T22:20:46.206240,14.88667918,.00101682,97.7994,184.2129,85.5003,274.7375,0,U,67365,999,2593,.79122958E-3,.7339E-4,0
LEMUR-2-SONNENBLUME,2026-004E,2026-07-04T06:14:11.582592,14.88408585,.00097148,97.7989,183.5297,88.2038,272.0292,0,U,67367,999,2583,.39859553E-3,.3644E-4,0
LEMUR-2-WOBLER,2026-004F,2026-07-04T17:18:49.522464,14.88647395,.00099057,97.8041,184.1241,78.6329,281.6001,0,U,67368,999,2590,.72852761E-3,.6749E-4,0
LEMUR-2-GRAM-E-SUE,2026-004H,2026-07-04T23:33:40.054176,14.88557879,.00088505,97.7977,184.2565,88.4027,271.8204,0,U,67370,999,2594,.39566526E-3,.363E-4,0
LEMUR-2-KATIE,2026-004AA,2026-07-04T19:34:33.350592,14.90185004,.0004345,97.8042,184.6098,57.7344,302.4295,0,U,67387,999,2593,.92602467E-3,.8924E-4,0
LEMUR-2-HCS-BAZUS,2026-004AB,2026-07-04T22:45:47.839968,14.90225147,.00037341,97.8028,184.7206,55.9351,304.2221,0,U,67388,999,2595,.44477658E-3,.4259E-4,0
